{
  "type": "FeatureCollection",
  "features": [
    {
      "type": "Feature",
      "properties": {
        "norad_id": 35835,
        "name": "COSMOS 2251 DEB",
        "group": "cosmos-2251-debris",
        "lat": 50.61309956882253,
        "lon": 70.23570905595311,
        "alt_km": 884.2864410980837,
        "timestamp": "2025-12-11T10:53:16.286800+00:00",
        "meta_object_name": "COSMOS 2251 DEB",
        "meta_object_id": "1993-036ATH",
        "meta_epoch": "2025-12-08T02:26:31.163712",
        "meta_mean_motion": 13.82845446,
        "meta_eccentricity": 0.0289856,
        "meta_inclination": 74.0637,
        "meta_ra_of_asc_node": 276.2339,
        "meta_arg_of_pericenter": 58.9026,
        "meta_mean_anomaly": 304.0195,
        "meta_ephemeris_type": 0,
        "meta_classification_type": "U",
        "meta_norad_cat_id": 35835,
        "meta_element_set_no": 999,
        "meta_rev_at_epoch": 61635,
        "meta_bstar": 0.0020246404,
        "meta_mean_motion_dot": 3.026e-05,
        "meta_mean_motion_ddot": 0,
        "tle_line1": "1 35835U 93036ATH 25342.10174958  .00003026  00000+0  20246-2 0  9992",
        "tle_line2": "2 35835  74.0637 276.2339 0289856  58.9026 304.0195 13.82845446616351"
      },
      "geometry": {
        "type": "Point",
        "coordinates": [
          70.23570905595311,
          50.61309956882253
        ]
      }
    },
    {
      "type": "Feature",
      "properties": {
        "norad_id": 35836,
        "name": "COSMOS 2251 DEB",
        "group": "cosmos-2251-debris",
        "lat": -61.39518967367693,
        "lon": 143.7592344044263,
        "alt_km": 656.3456025404439,
        "timestamp": "2025-12-11T10:53:16.286811+00:00",
        "meta_object_name": "COSMOS 2251 DEB",
        "meta_object_id": "1993-036ATJ",
        "meta_epoch": "2025-12-10T18:51:50.352480",
        "meta_mean_motion": 14.70892448,
        "meta_eccentricity": 0.00244147,
        "meta_inclination": 74.0314,
        "meta_ra_of_asc_node": 176.7294,
        "meta_arg_of_pericenter": 235.542,
        "meta_mean_anomaly": 124.3445,
        "meta_ephemeris_type": 0,
        "meta_classification_type": "U",
        "meta_norad_cat_id": 35836,
        "meta_element_set_no": 999,
        "meta_rev_at_epoch": 63491,
        "meta_bstar": 0.0027962773,
        "meta_mean_motion_dot": 0.00017206,
        "meta_mean_motion_ddot": 0,
        "tle_line1": "1 35836U 93036ATJ 25344.78599945  .00017206  00000+0  27963-2 0  9994",
        "tle_line2": "2 35836  74.0314 176.7294 0024414 235.5420 124.3445 14.70892448634911"
      },
      "geometry": {
        "type": "Point",
        "coordinates": [
          143.7592344044263,
          -61.39518967367693
        ]
      }
    },
    {
      "type": "Feature",
      "properties": {
        "norad_id": 35837,
        "name": "COSMOS 2251 DEB",
        "group": "cosmos-2251-debris",
        "lat": -7.354890103785863,
        "lon": -152.3942332870925,
        "alt_km": 1253.9863859931274,
        "timestamp": "2025-12-11T10:53:16.286822+00:00",
        "meta_object_name": "COSMOS 2251 DEB",
        "meta_object_id": "1993-036ATK",
        "meta_epoch": "2025-12-09T22:01:37.127712",
        "meta_mean_motion": 13.63437069,
        "meta_eccentricity": 0.04220669,
        "meta_inclination": 73.7216,
        "meta_ra_of_asc_node": 212.3216,
        "meta_arg_of_pericenter": 133.5531,
        "meta_mean_anomaly": 246.304,
        "meta_ephemeris_type": 0,
        "meta_classification_type": "U",
        "meta_norad_cat_id": 35837,
        "meta_element_set_no": 999,
        "meta_rev_at_epoch": 57938,
        "meta_bstar": 0.0025074688,
        "meta_mean_motion_dot": 3.597e-05,
        "meta_mean_motion_ddot": 0,
        "tle_line1": "1 35837U 93036ATK 25343.91779083  .00003597  00000+0  25075-2 0  9992",
        "tle_line2": "2 35837  73.7216 212.3216 0422066 133.5531 246.3040 13.63437069579385"
      },
      "geometry": {
        "type": "Point",
        "coordinates": [
          -152.3942332870925,
          -7.354890103785863
        ]
      }
    },
    {
      "type": "Feature",
      "properties": {
        "norad_id": 35839,
        "name": "COSMOS 2251 DEB",
        "group": "cosmos-2251-debris",
        "lat": -41.343816255550884,
        "lon": 160.73525887201734,
        "alt_km": 420.4125279673963,
        "timestamp": "2025-12-11T10:53:16.286832+00:00",
        "meta_object_name": "COSMOS 2251 DEB",
        "meta_object_id": "1993-036ATM",
        "meta_epoch": "2025-12-10T23:05:28.381056",
        "meta_mean_motion": 15.50718129,
        "meta_eccentricity": 0.0001256,
        "meta_inclination": 74.2076,
        "meta_ra_of_asc_node": 327.383,
        "meta_arg_of_pericenter": 82.1018,
        "meta_mean_anomaly": 278.0339,
        "meta_ephemeris_type": 0,
        "meta_classification_type": "U",
        "meta_norad_cat_id": 35839,
        "meta_element_set_no": 999,
        "meta_rev_at_epoch": 88540,
        "meta_bstar": 0.0072568,
        "meta_mean_motion_dot": 0.00441746,
        "meta_mean_motion_ddot": 0,
        "tle_line1": "1 35839U 93036ATM 25344.96213404  .00441746  00000+0  72568-2 0  9991",
        "tle_line2": "2 35839  74.2076 327.3830 0001256  82.1018 278.0339 15.50718129885402"
      },
      "geometry": {
        "type": "Point",
        "coordinates": [
          160.73525887201734,
          -41.343816255550884
        ]
      }
    },
    {
      "type": "Feature",
      "properties": {
        "norad_id": 35840,
        "name": "COSMOS 2251 DEB",
        "group": "cosmos-2251-debris",
        "lat": 3.209705585887334,
        "lon": -20.362586675202145,
        "alt_km": 799.753690598046,
        "timestamp": "2025-12-11T10:53:16.286842+00:00",
        "meta_object_name": "COSMOS 2251 DEB",
        "meta_object_id": "1993-036ATN",
        "meta_epoch": "2025-12-09T04:38:38.499360",
        "meta_mean_motion": 14.37769402,
        "meta_eccentricity": 0.0116323,
        "meta_inclination": 73.9303,
        "meta_ra_of_asc_node": 164.7511,
        "meta_arg_of_pericenter": 68.104,
        "meta_mean_anomaly": 293.2433,
        "meta_ephemeris_type": 0,
        "meta_classification_type": "U",
        "meta_norad_cat_id": 35840,
        "meta_element_set_no": 999,
        "meta_rev_at_epoch": 85240,
        "meta_bstar": 0.002118,
        "meta_mean_motion_dot": 6.875e-05,
        "meta_mean_motion_ddot": 0,
        "tle_line1": "1 35840U 93036ATN 25343.19350115  .00006875  00000+0  21180-2 0  9992",
        "tle_line2": "2 35840  73.9303 164.7511 0116323  68.1040 293.2433 14.37769402852405"
      },
      "geometry": {
        "type": "Point",
        "coordinates": [
          -20.362586675202145,
          3.209705585887334
        ]
      }
    },
    {
      "type": "Feature",
      "properties": {
        "norad_id": 35883,
        "name": "COSMOS 2251 DEB",
        "group": "cosmos-2251-debris",
        "lat": 60.38831671707725,
        "lon": -137.81912576721442,
        "alt_km": 713.6307223916174,
        "timestamp": "2025-12-11T10:53:16.286853+00:00",
        "meta_object_name": "COSMOS 2251 DEB",
        "meta_object_id": "1993-036ATW",
        "meta_epoch": "2025-12-08T12:53:27.979296",
        "meta_mean_motion": 14.5058807,
        "meta_eccentricity": 0.00839123,
        "meta_inclination": 74.0248,
        "meta_ra_of_asc_node": 77.932,
        "meta_arg_of_pericenter": 208.211,
        "meta_mean_anomaly": 163.6192,
        "meta_ephemeris_type": 0,
        "meta_classification_type": "U",
        "meta_norad_cat_id": 35883,
        "meta_element_set_no": 999,
        "meta_rev_at_epoch": 62325,
        "meta_bstar": 0.00065719246,
        "meta_mean_motion_dot": 2.667e-05,
        "meta_mean_motion_ddot": 0,
        "tle_line1": "1 35883U 93036ATW 25342.53712939  .00002667  00000+0  65719-3 0  9994",
        "tle_line2": "2 35883  74.0248  77.9320 0083912 208.2110 163.6192 14.50588070623253"
      },
      "geometry": {
        "type": "Point",
        "coordinates": [
          -137.81912576721442,
          60.38831671707725
        ]
      }
    },
    {
      "type": "Feature",
      "properties": {
        "norad_id": 35884,
        "name": "COSMOS 2251 DEB",
        "group": "cosmos-2251-debris",
        "lat": -45.552531174179386,
        "lon": -38.68115405551968,
        "alt_km": 890.310791500644,
        "timestamp": "2025-12-11T10:53:16.286863+00:00",
        "meta_object_name": "COSMOS 2251 DEB",
        "meta_object_id": "1993-036ATX",
        "meta_epoch": "2025-12-09T17:00:47.209536",
        "meta_mean_motion": 14.25629404,
        "meta_eccentricity": 0.01087033,
        "meta_inclination": 73.9912,
        "meta_ra_of_asc_node": 341.4952,
        "meta_arg_of_pericenter": 129.2859,
        "meta_mean_anomaly": 231.7992,
        "meta_ephemeris_type": 0,
        "meta_classification_type": "U",
        "meta_norad_cat_id": 35884,
        "meta_element_set_no": 999,
        "meta_rev_at_epoch": 22314,
        "meta_bstar": 0.001725321,
        "meta_mean_motion_dot": 4.326e-05,
        "meta_mean_motion_ddot": 0,
        "tle_line1": "1 35884U 93036ATX 25343.70887974  .00004326  00000+0  17253-2 0  9990",
        "tle_line2": "2 35884  73.9912 341.4952 0108703 129.2859 231.7992 14.25629404223146"
      },
      "geometry": {
        "type": "Point",
        "coordinates": [
          -38.68115405551968,
          -45.552531174179386
        ]
      }
    }
  ]
}